{
    "links": {
        "self": "http://www.neowsapp.com/rest/v1/neo/3609844?api_key=iIulBulltgU6a56xZRHN4H3l9WmuAYTsLGpBGhQ2"
    },
    "id": "3609844",
    "neo_reference_id": "3609844",
    "name": "(2012 TQ20)",
    "designation": "2012 TQ20",
    "nasa_jpl_url": "http://ssd.jpl.nasa.gov/sbdb.cgi?sstr=3609844",
    "absolute_magnitude_h": 27.1,
    "estimated_diameter": {
        "kilometers": {
            "estimated_diameter_min": 0.0101054342,
            "estimated_diameter_max": 0.0225964377
        },
        "meters": {
            "estimated_diameter_min": 10.1054341542,
            "estimated_diameter_max": 22.5964377109
        },
        "miles": {
            "estimated_diameter_min": 0.0062792237,
            "estimated_diameter_max": 0.0140407711
        },
        "feet": {
            "estimated_diameter_min": 33.1543125905,
            "estimated_diameter_max": 74.1352966996
        }
    },
    "is_potentially_hazardous_asteroid": false,
    "close_approach_data": [
        {
            "close_approach_date": "2012-10-15",
            "close_approach_date_full": "2012-Oct-15 07:18",
            "epoch_date_close_approach": 1350285480000,
            "relative_velocity": {
                "kilometers_per_second": "8.2114588984",
                "kilometers_per_hour": "29561.2520343231",
                "miles_per_hour": "18368.2124098826"
            },
            "miss_distance": {
                "astronomical": "0.0278137064",
                "lunar": "10.8195317896",
                "kilometers": "4160871.234245368",
                "miles": "2585445.4962593584"
            },
            "orbiting_body": "Earth"
        }
    ],
    "orbital_data": {
        "orbit_id": "7",
        "orbit_determination_date": "2017-04-06 08:48:45",
        "first_observation_date": "2012-10-08",
        "last_observation_date": "2012-10-09",
        "data_arc_in_days": 1,
        "observations_used": 12,
        "orbit_uncertainty": "9",
        "minimum_orbit_intersection": ".00965981",
        "jupiter_tisserand_invariant": "3.650",
        "epoch_osculation": "2456209.5",
        "eccentricity": ".5145343527843507",
        "semi_major_axis": "2.014868756630254",
        "inclination": ".819327569939324",
        "ascending_node_longitude": "349.5025732282387",
        "orbital_period": "1044.64461704679",
        "perihelion_distance": ".978149564992097",
        "perihelion_argument": "60.8179154030755",
        "aphelion_distance": "3.051587948268411",
        "perihelion_time": "2456237.964631925131",
        "mean_anomaly": "350.1906664469146",
        "mean_motion": ".3446148040447669",
        "equinox": "J2000",
        "orbit_class": {
            "orbit_class_type": "APO",
            "orbit_class_description": "Near-Earth asteroid orbits which cross the Earth’s orbit similar to that of 1862 Apollo",
            "orbit_class_range": "a (semi-major axis) > 1.0 AU; q (perihelion) < 1.017 AU"
        }
    },
    "is_sentry_object": false
}